0 THOR ABLESTAR DEB
1 04005U 61015JK  13282.66089359  .00000286  00000-0  36642-3 0  3932
2 04005 066.7521 284.0648 0092481 162.5485 311.0314 13.74725321250640
0 THOR ABLESTAR DEB
1 04005U 61015JK  13284.41430928  .00000292  00000-0  37289-3 0  3945
2 04005 066.7521 279.8897 0092293 161.3045 348.7734 13.74726565250888
0 THOR ABLESTAR DEB
1 04005U 61015JK  13285.99131692  .00000251  00000-0  33133-3 0  3955
2 04005 066.7521 276.1344 0092160 160.1946 233.4602 13.74727835251106
0 THOR ABLESTAR DEB
1 04005U 61015JK  13287.39180948  .00000258  00000-0  33831-3 0  3962
2 04005 066.7522 272.7995 0091958 159.1781 324.6003 13.74728236251294
0 THOR ABLESTAR DEB
1 04005U 61015JK  13288.76156221  .00000286  00000-0  36659-3 0  3974
2 04005 066.7525 269.5381 0091864 158.1974 263.5978 13.74729017251480
0 THOR ABLESTAR DEB
1 04005U 61015JK  13290.08547006  .00000258  00000-0  33800-3 0  3982
2 04005 066.7528 266.3859 0091763 157.2551 335.7045 13.74729560251667
0 THOR ABLESTAR DEB
1 04005U 61015JK  13291.10171954  .00000260  00000-0  34032-3 0  3993
2 04005 066.7528 263.9664 0091677 156.5332 325.1906 13.74729952251807
0 THOR ABLESTAR DEB
1 04005U 61015JK  13292.76523252  .00000306  00000-0  38693-3 0  4009
2 04005 066.7529 260.0055 0091563 155.3600 278.0224 13.74730588252031
0 THOR ABLESTAR DEB
1 04005U 61015JK  13293.78470007  .00000289  00000-0  36992-3 0  4012
2 04005 066.7529 257.5781 0091499 154.6237 283.4508 13.74731212252179
0 THOR ABLESTAR DEB
1 04005U 61015JK  13295.03178840  .00000272  00000-0  35259-3 0  4020
2 04005 066.7530 254.6088 0091418 153.7531 335.3660 13.74731990252345
0 THOR ABLESTAR DEB
1 04005U 61015JK  13296.04811609  .00000240  00000-0  31999-3 0  4032
2 04005 066.7530 252.1889 0091337 153.0315 325.2468 13.74732876252483
